H1 CPF 01  gfz 2021 02 27 01  5581 terrasarx 
H2 0702601  6201 31698    2021 02 27 00 59 42 2021 03 04 00 00 42   120 1 1  0 0 0
H9
10 0 59274  12942.000000  0    1141494.118   -262544.435  -6794911.818
10 0 59274  13062.000000  0     405569.928   -810049.752  -6835334.107
10 0 59274  13182.000000  0    -346719.935  -1330506.920  -6756561.817
10 0 59274  13302.000000  0   -1101795.136  -1814733.378  -6559947.610
10 0 59274  13422.000000  0   -1845865.053  -2254402.538  -6248872.760
10 0 59274  13542.000000  0   -2565175.156  -2642185.255  -5828694.735
10 0 59274  13662.000000  0   -3246256.307  -2971871.509  -5306664.772
10 0 59274  13782.000000  0   -3876176.155  -3238472.519  -4691815.276
10 0 59274  13902.000000  0   -4442787.027  -3438299.769  -3994814.120
10 0 59274  14022.000000  0   -4934964.378  -3569018.661  -3227789.410
10 0 59274  14142.000000  0   -5342832.062  -3629676.329  -2404125.891
10 0 59274  14262.000000  0   -5657968.434  -3620701.945  -1538234.831
10 0 59274  14382.000000  0   -5873587.406  -3543878.733   -645301.825
10 0 59274  14502.000000  0   -5984690.253  -3402288.278    258983.060
10 0 59274  14622.000000  0   -5988183.899  -3200228.096   1158707.441
10 0 59274  14742.000000  0   -5882961.086  -2943103.875   2038026.541
10 0 59274  14862.000000  0   -5669938.658  -2637298.087   2881451.724
10 0 59274  14982.000000  0   -5352055.896  -2290020.649   3674130.598
10 0 59274  15102.000000  0   -4934231.772  -1909144.015   4402115.958
10 0 59274  15222.000000  0   -4423281.154  -1503026.300   5052613.704
10 0 59274  15342.000000  0   -3827795.907  -1080329.801   5614206.156
10 0 59274  15462.000000  0   -3157993.445   -649837.725   6077050.258
10 0 59274  15582.000000  0   -2425533.708   -220271.751   6433046.614
10 0 59274  15702.000000  0   -1643308.823    199884.104   6675974.626
10 0 59274  15822.000000  0    -825212.311    602548.811   6801594.138
10 0 59274  15942.000000  0      14108.656    980198.243   6807714.711
10 0 59274  16062.000000  0     859514.964   1326004.906   6694231.177
10 0 59274  16182.000000  0    1695647.703   1633961.520   6463125.440
10 0 59274  16302.000000  0    2507206.265   1898985.521   6118433.527
10 0 59274  16422.000000  0    3279228.189   2117003.284   5666180.200
10 0 59274  16542.000000  0    3997367.874   2285013.272   5114279.592
10 0 59274  16662.000000  0    4648166.501   2401126.848   4472402.479
10 0 59274  16782.000000  0    5219310.321   2464586.903   3751813.648
10 0 59274  16902.000000  0    5699874.554   2475762.125   2965176.811
10 0 59274  17022.000000  0    6080538.982   2436116.210   2126330.528
10 0 59274  17142.000000  0    6353777.334   2348155.209   1250043.643
10 0 59274  17262.000000  0    6514013.184   2215351.516    351748.964
10 0 59274  17382.000000  0    6557736.711   2042047.559   -552737.003
10 0 59274  17502.000000  0    6483578.302   1833341.296  -1447502.026
10 0 59274  17622.000000  0    6292340.795   1594956.508  -2316824.359
10 0 59274  17742.000000  0    5986989.984   1333101.380  -3145456.714
10 0 59274  17862.000000  0    5572599.246   1054318.401  -3918898.452
10 0 59274  17982.000000  0    5056253.245    765330.517  -4623650.252
10 0 59274  18102.000000  0    4446913.583    472887.596  -5247445.986
10 0 59274  18222.000000  0    3755252.156    183616.434  -5779458.593
10 0 59274  18342.000000  0    2993455.496    -96121.978  -6210478.701
10 0 59274  18462.000000  0    2175003.258   -360365.655  -6533063.447
10 0 59274  18582.000000  0    1314427.688   -603672.987  -6741652.892
10 0 59274  18702.000000  0     427057.596   -821230.183  -6832657.235
10 0 59274  18822.000000  0    -471251.526  -1008942.478  -6804511.377
10 0 59274  18942.000000  0   -1364393.767  -1163508.468  -6657698.222
10 0 59274  19062.000000  0   -2236295.043  -1282476.867  -6394742.009
10 0 59274  19182.000000  0   -3071196.166  -1364284.575  -6020168.455
10 0 59274  19302.000000  0   -3853931.511  -1408275.914  -5540435.512
10 0 59274  19422.000000  0   -4570204.237  -1414703.098  -4963834.232
10 0 59274  19542.000000  0   -5206850.609  -1384706.952  -4300356.469
10 0 59274  19662.000000  0   -5752088.126  -1320278.436  -3561532.704
10 0 59274  19782.000000  0   -6195743.832  -1224201.518  -2760240.476
10 0 59274  19902.000000  0   -6529455.990  -1099977.958  -1910484.858
10 0 59274  20022.000000  0   -6746843.897   -951735.569  -1027155.277
10 0 59274  20142.000000  0   -6843641.902   -784121.959   -125761.989
10 0 59274  20262.000000  0   -6817791.614   -602184.847    777842.651
10 0 59274  20382.000000  0   -6669490.352   -411243.970   1667750.478
10 0 59274  20502.000000  0   -6401194.446   -216757.432   2528286.823
10 0 59274  20622.000000  0   -6017576.672    -24185.186   3344295.516
10 0 59274  20742.000000  0   -5525438.542    161146.587   4101413.398
10 0 59274  20862.000000  0   -4933580.308    334176.100   4786327.550
10 0 59274  20982.000000  0   -4252633.007    490228.641   5387010.031
10 0 59274  21102.000000  0   -3494858.033    625129.050   5892926.736
10 0 59274  21222.000000  0   -2673917.482    735300.529   6295218.595
10 0 59274  21342.000000  0   -1804620.737    817847.918   6586851.397
10 0 59274  21462.000000  0    -902651.796    870625.142   6762732.966
10 0 59274  21582.000000  0      15715.904    892284.338   6819795.318
10 0 59274  21702.000000  0     933912.503    882306.122   6757044.197
10 0 59274  21822.000000  0    1835369.318    841011.122   6575575.328
10 0 59274  21942.000000  0    2703816.631    769552.225   6278556.666
10 0 59274  22062.000000  0    3523577.513    669887.483   5871177.419
10 0 59274  22182.000000  0    4279853.489    544734.259   5360562.416
10 0 59274  22302.000000  0    4958995.530    397505.221   4755653.561
10 0 59274  22422.000000  0    5548757.367    232226.511   4067059.882
10 0 59274  22542.000000  0    6038526.310     53441.525   3306875.637
10 0 59274  22662.000000  0    6419524.895   -133898.180   2488468.726
10 0 59274  22782.000000  0    6684977.202   -324553.983   1626243.476
10 0 59274  22902.000000  0    6830237.780   -513130.107    735383.611
10 0 59274  23022.000000  0    6852879.435   -694207.073   -168421.930
10 0 59274  23142.000000  0    6752736.181   -862477.506  -1069264.764
10 0 59274  23262.000000  0    6531899.232  -1012880.055  -1951305.984
10 0 59274  23382.000000  0    6194667.988  -1140727.644  -2799062.591
10 0 59274  23502.000000  0    5747457.102  -1241827.142  -3597684.398
10 0 59274  23622.000000  0    5198663.110  -1312587.221  -4333216.188
10 0 59274  23742.000000  0    4558494.602  -1350111.583  -4992839.631
10 0 59274  23862.000000  0    3838771.357  -1352276.461  -5565091.447
10 0 59274  23982.000000  0    3052696.218  -1317791.117  -6040054.385
10 0 59274  24102.000000  0    2214606.416  -1246239.245  -6409517.978
10 0 59274  24222.000000  0    1339709.759  -1138100.414  -6667109.603
10 0 59274  24342.000000  0     443809.443   -994753.138  -6808393.772
10 0 59274  24462.000000  0    -456977.418   -818458.872  -6830940.389
10 0 59274  24582.000000  0   -1346503.250   -612326.837  -6734361.564
10 0 59274  24702.000000  0   -2208873.066   -380260.356  -6520317.905
10 0 59274  24822.000000  0   -3028722.154   -126885.231  -6192491.817
10 0 59274  24942.000000  0   -3791483.745    142538.317  -5756531.173
10 0 59274  25062.000000  0   -4483646.970    422219.777  -5219962.891
10 0 59274  25182.000000  0   -5092998.210    705956.156  -4592073.817
10 0 59274  25302.000000  0   -5608843.351    987262.373  -3883762.571
10 0 59274  25422.000000  0   -6022205.756   1259512.698  -3107359.836
10 0 59274  25542.000000  0   -6325994.131   1516088.960  -2276420.331
10 0 59274  25662.000000  0   -6515136.822   1750532.227  -1405489.475
10 0 59274  25782.000000  0   -6586678.927   1956695.372   -509847.982
10 0 59274  25902.000000  0   -6539837.628   2128891.405    394761.812
10 0 59274  26022.000000  0   -6376013.329   2262033.990   1292419.992
10 0 59274  26142.000000  0   -6098757.371   2351767.518   2167317.647
10 0 59274  26262.000000  0   -5713695.801   2394582.529   3004044.527
10 0 59274  26382.000000  0   -5228411.722   2387912.765   3787868.556
10 0 59274  26502.000000  0   -4652288.619   2330211.487   4505001.056
10 0 59274  26622.000000  0   -3996320.147   2221006.114   5142841.031
10 0 59274  26742.000000  0   -3272892.356   2060930.039   5690195.616
10 0 59274  26862.000000  0   -2495542.237   1851731.558   6137474.343
10 0 59274  26982.000000  0   -1678696.777   1596258.602   6476852.553
10 0 59274  27102.000000  0    -837399.941   1298419.991   6702401.681
10 0 59274  27222.000000  0      12966.237    963124.767   6810185.403
10 0 59274  27342.000000  0     856962.166    596200.570   6798323.676
10 0 59274  27462.000000  0    1679369.822    204292.433   6667023.276
10 0 59274  27582.000000  0    2465465.743   -205256.713   6418574.758
10 0 59274  27702.000000  0    3201284.433   -624542.798   6057316.302
10 0 59274  27822.000000  0    3873868.727  -1045251.599   5589562.833
10 0 59274  27942.000000  0    4471501.875  -1458822.397   5023501.220
10 0 59274  28062.000000  0    4983916.862  -1856621.147   4369053.013
10 0 59274  28182.000000  0    5402481.043  -2230119.297   3637706.142
10 0 59274  28302.000000  0    5720350.920  -2571075.712   2842315.405
10 0 59274  28422.000000  0    5932591.251  -2871716.908   1996875.523
10 0 59274  28542.000000  0    6036257.503  -3124910.867   1116272.565
10 0 59274  28662.000000  0    6030439.885  -3324331.289    216015.770
10 0 59274  28782.000000  0    5916264.842  -3464606.227   -688043.607
10 0 59274  28902.000000  0    5696856.451  -3541448.617  -1580000.945
10 0 59274  29022.000000  0    5377255.414  -3551763.433  -2444186.904
10 0 59274  29142.000000  0    4964301.588  -3493730.943  -3265448.576
10 0 59274  29262.000000  0    4466481.982  -3366863.502  -4029419.062
10 0 59274  29382.000000  0    3893748.632  -3172035.189  -4722768.802
99
